      2.10          N: GNSS NAV DATA                        RINEX VERSION / TYPE
fic2rin                                 01/06/2020 00:19:43 PGM / RUN BY / DATE
                                                            END OF HEADER
 6 20  1  6  0  0  0.0-1.742509193718e-04-1.045918907039e-11 0.000000000000e+00
    2.500000000000e+01-5.478125000000e+01 3.963022218640e-09-9.750106592790e-01
   -2.786517143250e-06 1.758322119713e-03 9.581446647644e-06 5.153728605270e+03
    8.640000000000e+04-1.117587089539e-08-7.107595548798e-01 2.980232238770e-08
    9.781913152861e-01 2.065625000000e+02-1.182547424338e+00-7.740679573232e-09
    1.292910997790e-10 1.000000000000e+00 2.087000000000e+03 0.000000000000e+00
    2.400000000000e+00 0.000000000000e+00 4.656612873077e-09 2.500000000000e+01
    7.920000000000e+04 4.000000000000e+00
14 20  1  6  0  0  0.0-4.052603617311e-05 2.273736754432e-12 0.000000000000e+00
    3.100000000000e+01-1.509375000000e+01 4.728411243022e-09 5.811292808357e-01
   -8.679926395416e-07 1.077891059685e-02 8.182600140572e-06 5.153600030899e+03
    8.640000000000e+04-1.173466444016e-07 1.464637316686e+00 4.284083843231e-08
    9.599866193417e-01 2.220000000000e+02-1.931975820285e+00-8.237128823764e-09
   -3.350139546759e-10 1.000000000000e+00 2.087000000000e+03 0.000000000000e+00
    2.400000000000e+00 0.000000000000e+00-9.778887033463e-09 3.100000000000e+01
    7.920000000000e+04 4.000000000000e+00
15 20  1  6  0  0  0.0-2.606222406030e-04 2.614797267597e-12 0.000000000000e+00
    5.600000000000e+01-2.387500000000e+01 5.514158258253e-09-1.072757827527e-02
   -1.141801476479e-06 1.212267018855e-02 6.934627890587e-06 5.153614212036e+03
    8.640000000000e+04-2.048909664154e-08 1.284066031967e+00 1.862645149231e-07
    9.276976415533e-01 2.291875000000e+02 8.572689250574e-01-8.684647464712e-09
   -1.714357124141e-10 1.000000000000e+00 2.087000000000e+03 0.000000000000e+00
    2.400000000000e+00 0.000000000000e+00-1.117587089539e-08 5.600000000000e+01
    7.920000000000e+04 4.000000000000e+00
 9 20  1  6  0  0  0.0-1.257588155568e-04-8.981260180008e-12 0.000000000000e+00
    1.160000000000e+02-2.584375000000e+01 4.865202655219e-09 1.383853365287e+00
   -1.339241862297e-06 1.722831977531e-03 7.640570402145e-06 5.153526609421e+03
    8.640000000000e+04 2.235174179077e-08 1.369881055193e+00-5.960464477539e-08
    9.521535663893e-01 2.263750000000e+02 1.703008610287e+00-8.179626428559e-09
   -2.542963067476e-10 1.000000000000e+00 2.087000000000e+03 0.000000000000e+00
    2.400000000000e+00 0.000000000000e+00 1.396983861923e-09 1.160000000000e+02
    7.920000000000e+04 4.000000000000e+00
11 20  1  6  0  0  0.0-3.984444774687e-04 1.091393642128e-11 0.000000000000e+00
    1.100000000000e+02-8.318750000000e+01 5.394153259563e-09-2.046191712738e+00
   -4.129484295845e-06 1.590831449721e-02 8.437782526016e-06 5.152866384506e+03
    8.640000000000e+04 1.862645149231e-08-1.167844888444e+00 4.023313522339e-07
    9.115438528889e-01 1.877187500000e+02 1.972310275508e+00-8.403207170165e-09
   -1.739358165535e-10 1.000000000000e+00 2.087000000000e+03 0.000000000000e+00
    2.400000000000e+00 0.000000000000e+00-1.210719347000e-08 1.100000000000e+02
    7.920000000000e+04 4.000000000000e+00
31 20  1  6  0  0  0.0-1.462921500206e-05-2.501110429876e-12 0.000000000000e+00
    2.800000000000e+01 7.571875000000e+01 4.442685055665e-09-2.376011077553e+00
    3.710389137268e-06 9.641892858781e-03 1.057796180248e-05 5.153768098831e+03
    8.640000000000e+04-1.266598701477e-07 2.459924273628e+00-1.527369022369e-07
    9.585259936551e-01 1.777500000000e+02 9.873223730256e-02-7.877828143163e-09
   -9.286101089098e-12 1.000000000000e+00 2.087000000000e+03 0.000000000000e+00
    2.400000000000e+00 0.000000000000e+00-1.350417733192e-08 2.800000000000e+01
    7.920000000000e+04 4.000000000000e+00
27 20  1  6  0  0  0.0-1.724823378026e-04-1.148237060988e-11 0.000000000000e+00
    2.900000000000e+01-5.981250000000e+01 4.286607125821e-09 8.860692060305e-01
   -2.924352884293e-06 7.598507683724e-03 4.986301064491e-06 5.153660570145e+03
    8.640000000000e+04 1.862645149231e-08-1.758245819299e+00 1.024454832077e-07
    9.782554569293e-01 2.898750000000e+02 4.958947025420e-01-8.221771041194e-09
   -3.793015137162e-10 1.000000000000e+00 2.087000000000e+03 0.000000000000e+00
    2.400000000000e+00 0.000000000000e+00 1.862645149231e-09 2.900000000000e+01
    7.920000000000e+04 4.000000000000e+00
30 20  1  6  0  0  0.0-1.225741580129e-04-8.753886504564e-12 0.000000000000e+00
    3.200000000000e+01 6.509375000000e+01 4.875203071777e-09-2.027276609145e+00
    3.173947334290e-06 4.183629294857e-03 1.033768057823e-05 5.153711412430e+03
    8.640000000000e+04 2.793967723846e-08 2.469786366161e+00-6.891787052155e-08
    9.394182822679e-01 1.705625000000e+02-2.930003842444e+00-8.113195089998e-09
    3.214419607765e-12 1.000000000000e+00 2.087000000000e+03 0.000000000000e+00
    2.400000000000e+00 0.000000000000e+00 3.725290298462e-09 3.200000000000e+01
    7.920000000000e+04 4.000000000000e+00
19 20  1  6  0  0  0.0-2.164416946471e-04 5.115907697473e-12 0.000000000000e+00
    2.900000000000e+01-6.984375000000e+01 4.103028050445e-09-2.775494570581e+00
   -3.572553396225e-06 9.148824494332e-03 4.960224032402e-06 5.153666873932e+03
    8.640000000000e+04 1.378357410431e-07-1.654820403284e+00 3.725290298462e-08
    9.820328182030e-01 2.939687500000e+02 1.545613454559e+00-7.862470360593e-09
   -2.192948487964e-10 1.000000000000e+00 2.087000000000e+03 0.000000000000e+00
    2.400000000000e+00 0.000000000000e+00-1.536682248116e-08 2.900000000000e+01
    7.920000000000e+04 4.000000000000e+00
28 20  1  6  0  0  0.0 7.468559779227e-04-2.160049916711e-12 0.000000000000e+00
    2.500000000000e+01 6.093750000000e+01 4.321608583773e-09 1.598785609872e+00
    2.771615982056e-06 1.890716527123e-02 3.971159458160e-06 5.153707521439e+03
    8.640000000000e+04 2.160668373108e-07-2.712043818254e+00-3.669410943985e-07
    9.796286001148e-01 3.098750000000e+02-1.423179480818e+00-8.023548498715e-09
    9.607543049875e-11 1.000000000000e+00 2.087000000000e+03 0.000000000000e+00
    3.400000000000e+00 0.000000000000e+00-1.117587089539e-08 2.500000000000e+01
    7.920000000000e+04 4.000000000000e+00
24 20  1  6  0  0  0.0-7.195863872766e-06-5.684341886081e-13 0.000000000000e+00
    9.400000000000e+01 4.715625000000e+01 4.971278502275e-09-1.075244965274e+00
    2.523884177208e-06 9.387227124535e-03 9.359791874886e-06 5.153668830872e+03
    8.640000000000e+04 2.197921276093e-07 2.375244493850e+00 3.352761268616e-08
    9.372103936376e-01 1.856562500000e+02 6.449508726555e-01-8.195698526598e-09
   -8.786080261224e-11 1.000000000000e+00 2.087000000000e+03 0.000000000000e+00
    2.400000000000e+00 0.000000000000e+00 2.793967723846e-09 9.400000000000e+01
    7.920000000000e+04 4.000000000000e+00
25 20  1  6  0  0  0.0-1.655146479607e-05 5.684341886081e-13 0.000000000000e+00
    8.700000000000e+01 6.865625000000e+01 4.501973239542e-09-2.976347387284e+00
    3.458932042122e-06 8.851177874021e-03 4.369765520096e-06 5.153612180710e+03
    8.640000000000e+04 6.519258022308e-08-2.801846640593e+00-1.918524503708e-07
    9.677494200421e-01 2.972812500000e+02 8.886115923425e-01-8.090694152744e-09
    1.082187934614e-10 1.000000000000e+00 2.087000000000e+03 0.000000000000e+00
    3.400000000000e+00 0.000000000000e+00 5.587935447693e-09 8.700000000000e+01
    7.920000000000e+04 4.000000000000e+00
23 20  1  6  0  0  0.0-1.449682749808e-04 2.387423592154e-12 0.000000000000e+00
    9.300000000000e+01-2.181250000000e+01 5.188787562401e-09-5.824132767193e-01
   -9.350478649139e-07 1.331088889856e-02 7.547438144684e-06 5.153684944153e+03
    8.640000000000e+04 2.607703208923e-08 1.362645459447e+00 2.123415470123e-07
    9.429699855020e-01 2.255937500000e+02-2.210454818270e+00-8.507140070817e-09
   -2.414386283166e-10 1.000000000000e+00 2.087000000000e+03 0.000000000000e+00
    2.400000000000e+00 0.000000000000e+00-2.048909664154e-08 9.300000000000e+01
    7.920000000000e+04 4.000000000000e+00
32 20  1  6  0  0  0.0 1.767287030816e-04 1.080024958355e-11 0.000000000000e+00
    5.400000000000e+01-1.743750000000e+01 4.777699010341e-09 1.659861548765e+00
   -9.220093488693e-07 3.402577480301e-03 7.631257176399e-06 5.153663635254e+03
    8.640000000000e+04-7.078051567078e-08 1.377631056823e+00 8.940696716309e-08
    9.563265782463e-01 2.263750000000e+02-2.550190843925e+00-8.134624554050e-09
   -2.271523189487e-10 1.000000000000e+00 2.087000000000e+03 0.000000000000e+00
    2.400000000000e+00 0.000000000000e+00 4.656612873077e-10 5.400000000000e+01
    7.920000000000e+04 4.000000000000e+00
26 20  1  6  0  0  0.0 1.211944036186e-04 8.071765478235e-12 0.000000000000e+00
    8.700000000000e+01 7.365625000000e+01 5.026637951076e-09 2.706667461187e+00
    3.900378942490e-06 4.478034563363e-03 4.222616553307e-06 5.153728431702e+03
    8.640000000000e+04-1.266598701477e-07-2.834499207652e+00-4.097819328308e-08
    9.489175550250e-01 2.931562500000e+02 1.590985629109e-01-8.412850428989e-09
    1.367914121971e-10 1.000000000000e+00 2.087000000000e+03 0.000000000000e+00
    2.400000000000e+00 0.000000000000e+00 7.450580596924e-09 8.700000000000e+01
    7.920000000000e+04 4.000000000000e+00
20 20  1  6  0  0  0.0 5.277539603412e-04 0.000000000000e+00 0.000000000000e+00
    5.300000000000e+01 2.250000000000e+00 5.199502294427e-09-1.775361710667e+00
    1.583248376846e-07 5.084005999379e-03 7.199123501778e-06 5.153619571686e+03
    8.640000000000e+04-6.705522537231e-08 2.092716922746e-01 7.450580596924e-09
    9.329183382849e-01 2.288437500000e+02 2.547977096308e+00-8.375348866898e-09
    4.303750697063e-10 1.000000000000e+00 2.087000000000e+03 0.000000000000e+00
    2.400000000000e+00 0.000000000000e+00-8.381903171539e-09 5.300000000000e+01
    7.920000000000e+04 4.000000000000e+00
